[{"OBJECT_NAME":"STARLINK-31858","OBJECT_ID":"2024-084E","EPOCH":"2026-03-09T06:43:13.000512","MEAN_MOTION":15.2759031,"ECCENTRICITY":0.0001278,"INCLINATION":43.0009,"RA_OF_ASC_NODE":43.8412,"ARG_OF_PERICENTER":268.048,"MEAN_ANOMALY":92.0226,"EPHEMERIS_TYPE":0,"CLASSIFICATION_TYPE":"U","NORAD_CAT_ID":59658,"ELEMENT_SET_NO":999,"REV_AT_EPOCH":10431,"BSTAR":1.6448491e-5,"MEAN_MOTION_DOT":1.91e-6,"MEAN_MOTION_DDOT":0},{"OBJECT_NAME":"COSMOS 886 DEB","OBJECT_ID":"1976-126M","EPOCH":"2026-03-09T22:12:52.532928","MEAN_MOTION":13.82653067,"ECCENTRICITY":0.06461963,"INCLINATION":65.7873,"RA_OF_ASC_NODE":333.1273,"ARG_OF_PERICENTER":140.6509,"MEAN_ANOMALY":224.3408,"EPHEMERIS_TYPE":0,"CLASSIFICATION_TYPE":"U","NORAD_CAT_ID":9655,"ELEMENT_SET_NO":999,"REV_AT_EPOCH":37570,"BSTAR":0.00072487394,"MEAN_MOTION_DOT":4.06e-5,"MEAN_MOTION_DDOT":0}]
